ONEWEB-0223             
1 48768U 21045B   26177.70043337 -.00000112  00000+0 -33127-3 0  9999
2 48768  87.9012 257.2960 0001908 111.9434 248.1899 13.15549822245657
ONEWEB-0230             
1 48769U 21045C   26177.51979891  .00000158  00000+0  38510-3 0  9991
2 48769  87.8998 257.3444 0001979  95.6960 264.4396 13.15548843245899
ONEWEB-0237             
1 48770U 21045D   26177.73687659  .00000082  00000+0  18244-3 0  9993
2 48770  87.8996 257.3030 0001811 105.9749 254.1581 13.15547695245644
ONEWEB-0235             
1 48771U 21045E   26177.71152581 -.00000151  00000+0 -43627-3 0  9995
2 48771  87.9008 257.2947 0001857 111.4363 248.6965 13.15548901245634
ONEWEB-0242             
1 48772U 21045F   26177.70518432 -.00000142  00000+0 -41119-3 0  9990
2 48772  87.9011 257.2928 0001824 101.3763 258.7573 13.15547233245672
ONEWEB-0241             
1 48773U 21045G   26177.69250955 -.00000037  00000+0 -13252-3 0  9992
2 48773  87.9000 257.3126 0002114 112.3459 247.7896 13.15549421245586
ONEWEB-0243             
1 48774U 21045H   26177.72419486 -.00000069  00000+0 -21762-3 0  9993
2 48774  87.8997 257.3185 0001474 103.4191 256.7104 13.15549396245615
ONEWEB-0222             
1 48775U 21045J   26177.25121068 -.00000109  00000+0 -32459-3 0  9998
2 48775  87.9008 257.3814 0002013 106.5823 253.5529 13.15549707245594
ONEWEB-0244             
1 48776U 21045K   26177.73370759  .00000066  00000+0  14249-3 0  9992
2 48776  87.9010 257.2802 0001898 102.7095 257.4248 13.15548861246225
ONEWEB-0247             
1 48777U 21045L   26177.73054065  .00000006  00000+0 -18353-4 0  9998
2 48777  87.8997 257.3119 0001415 119.4705 240.6567 13.15547531245667
ONEWEB-0245             
1 48778U 21045M   26177.72578294 -.00000119  00000+0 -35008-3 0  9994
2 48778  87.9006 257.2927 0002066 105.4111 254.7248 13.15548586245635
ONEWEB-0229             
1 48779U 21045N   26177.72102657 -.00000101  00000+0 -30259-3 0  9995
2 48779  87.9007 257.2919 0001854 100.8892 259.2447 13.15548997245667
ONEWEB-0228             
1 48780U 21045P   26177.67838721  .00000097  00000+0  22437-3 0  9990
2 48780  87.9016 257.2936 0001991 101.3392 258.7962 13.15546988245575
ONEWEB-0232             
1 48781U 21045Q   26177.72894918 -.00000036  00000+0 -13015-3 0  9994
2 48781  87.9013 257.2841 0002084 101.7995 258.3369 13.15546759245905
ONEWEB-0231             
1 48782U 21045R   26177.70676292 -.00000066  00000+0 -20899-3 0  9997
2 48782  87.9005 257.3010 0001938 107.0167 253.1176 13.15548987245592
ONEWEB-0234             
1 48783U 21045S   26177.66859963  .00000147  00000+0  35731-3 0  9990
2 48783  87.9003 257.2903 0002822 102.0322 258.1124 13.15549514245722
ONEWEB-0238             
1 48784U 21045T   26177.66887946  .00000187  00000+0  46265-3 0  9991
2 48784  87.9011 257.2853 0002427 101.6615 258.4788 13.15547923245627
ONEWEB-0240             
1 48785U 21045U   26177.69013328  .00000021  00000+0  21371-4 0  9999
2 48785  87.9012 257.2911 0002095 109.6912 250.4444 13.15548048245656
ONEWEB-0246             
1 48786U 21045V   26177.68458242  .00000114  00000+0  26781-3 0  9999
2 48786  87.9010 257.2967 0001861  99.5753 260.5587 13.15549653245525
ONEWEB-0210             
1 48787U 21045W   26177.73528262  .00000079  00000+0  17536-3 0  9994
2 48787  87.9006 257.2834 0001142 109.4171 250.7082 13.15546575245577
ONEWEB-0214             
1 48788U 21045X   26177.66794059  .00000149  00000+0  36089-3 0  9998
2 48788  87.9007 257.2936 0001684  92.9654 267.1669 13.15549501245536
ONEWEB-0221             
1 48789U 21045Y   26177.75113985  .00000089  00000+0  20252-3 0  9990
2 48789  87.9007 257.2858 0001953 105.7349 254.3996 13.15548728245635
ONEWEB-0213             
1 48790U 21045Z   26177.74004544  .00000109  00000+0  25506-3 0  9991
2 48790  87.9004 257.2911 0001785 106.7049 253.4277 13.15547778245697
ONEWEB-0212             
1 48791U 21045AA  26177.71704924 -.00000134  00000+0 -39077-3 0  9996
2 48791  87.9009 257.2902 0002080 100.4406 259.6959 13.15550401245681
ONEWEB-0227             
1 48792U 21045AB  26177.71627397 -.00000169  00000+0 -48386-3 0  9996
2 48792  87.9007 257.2910 0002032 103.1127 257.0230 13.15549070245635
ONEWEB-0226             
1 48793U 21045AC  26177.70992447 -.00000117  00000+0 -34566-3 0  9995
2 48793  87.9005 257.2967 0001788 103.3641 256.7689 13.15546674245604
ONEWEB-0224             
1 48794U 21045AD  26177.74955465  .00000139  00000+0  33403-3 0  9990
2 48794  87.8998 257.3222 0002691 114.5797 245.5614 13.15547456245535
ONEWEB-0233             
1 48795U 21045AE  26177.67811109  .00000106  00000+0  24794-3 0  9996
2 48795  87.9000 257.3439 0001985 109.2594 250.8751 13.15548451245540
ONEWEB-0190             
1 48796U 21045AF  26177.66557084  .00000198  00000+0  49307-3 0  9993
2 48796  87.9000 257.3087 0001611 119.3269 240.8022 13.15547928245613
ONEWEB-0236             
1 48797U 21045AG  26177.68300744  .00000025  00000+0  31482-4 0  9990
2 48797  87.8998 257.3147 0002146  98.8851 261.2522 13.15549069245506
