OBJECT_NAME,OBJECT_ID,EPOCH,MEAN_MOTION,ECCENTRICITY,INCLINATION,RA_OF_ASC_NODE,ARG_OF_PERICENTER,MEAN_ANOMALY,EPHEMERIS_TYPE,CLASSIFICATION_TYPE,NORAD_CAT_ID,ELEMENT_SET_NO,REV_AT_EPOCH,BSTAR,MEAN_MOTION_DOT,MEAN_MOTION_DDOT
ONEWEB-0223,2021-045B,2026-06-26T16:48:37.443168,13.15549822,.0001908,87.9012,257.2960,111.9434,248.1899,0,U,48768,999,24565,-.33127E-3,-.112E-5,0
ONEWEB-0230,2021-045C,2026-06-26T12:28:30.625824,13.15548843,.0001979,87.8998,257.3444,95.6960,264.4396,0,U,48769,999,24589,.3851E-3,.158E-5,0
ONEWEB-0237,2021-045D,2026-06-26T17:41:06.137376,13.15547695,.0001811,87.8996,257.3030,105.9749,254.1581,0,U,48770,999,24564,.18244E-3,.82E-6,0
ONEWEB-0235,2021-045E,2026-06-26T17:04:35.829984,13.15548901,.0001857,87.9008,257.2947,111.4363,248.6965,0,U,48771,999,24563,-.43627E-3,-.151E-5,0
ONEWEB-0242,2021-045F,2026-06-26T16:55:27.925248,13.15547233,.0001824,87.9011,257.2928,101.3763,258.7573,0,U,48772,999,24567,-.41119E-3,-.142E-5,0
ONEWEB-0241,2021-045G,2026-06-26T16:37:12.825120,13.15549421,.0002114,87.9000,257.3126,112.3459,247.7896,0,U,48773,999,24558,-.13252E-3,-.37E-6,0
ONEWEB-0243,2021-045H,2026-06-26T17:22:50.435904,13.15549396,.0001474,87.8997,257.3185,103.4191,256.7104,0,U,48774,999,24561,-.21762E-3,-.69E-6,0
ONEWEB-0222,2021-045J,2026-06-26T06:01:44.602752,13.15549707,.0002013,87.9008,257.3814,106.5823,253.5529,0,U,48775,999,24559,-.32459E-3,-.109E-5,0
ONEWEB-0244,2021-045K,2026-06-26T17:36:32.335776,13.15548861,.0001898,87.9010,257.2802,102.7095,257.4248,0,U,48776,999,24622,.14249E-3,.66E-6,0
ONEWEB-0247,2021-045L,2026-06-26T17:31:58.712160,13.15547531,.0001415,87.8997,257.3119,119.4705,240.6567,0,U,48777,999,24566,-.18353E-4,.6E-7,0
ONEWEB-0245,2021-045M,2026-06-26T17:25:07.646016,13.15548586,.0002066,87.9006,257.2927,105.4111,254.7248,0,U,48778,999,24563,-.35008E-3,-.119E-5,0
ONEWEB-0229,2021-045N,2026-06-26T17:18:16.695648,13.15548997,.0001854,87.9007,257.2919,100.8892,259.2447,0,U,48779,999,24566,-.30259E-3,-.101E-5,0
ONEWEB-0228,2021-045P,2026-06-26T16:16:52.654944,13.15546988,.0001991,87.9016,257.2936,101.3392,258.7962,0,U,48780,999,24557,.22437E-3,.97E-6,0
ONEWEB-0232,2021-045Q,2026-06-26T17:29:41.209152,13.15546759,.0002084,87.9013,257.2841,101.7995,258.3369,0,U,48781,999,24590,-.13015E-3,-.36E-6,0
ONEWEB-0231,2021-045R,2026-06-26T16:57:44.316288,13.15548987,.0001938,87.9005,257.3010,107.0167,253.1176,0,U,48782,999,24559,-.20899E-3,-.66E-6,0
ONEWEB-0234,2021-045S,2026-06-26T16:02:47.008032,13.15549514,.0002822,87.9003,257.2903,102.0322,258.1124,0,U,48783,999,24572,.35731E-3,.147E-5,0
ONEWEB-0238,2021-045T,2026-06-26T16:03:11.185344,13.15547923,.0002427,87.9011,257.2853,101.6615,258.4788,0,U,48784,999,24562,.46265E-3,.187E-5,0
ONEWEB-0240,2021-045U,2026-06-26T16:33:47.515392,13.15548048,.0002095,87.9012,257.2911,109.6912,250.4444,0,U,48785,999,24565,.21371E-4,.21E-6,0
ONEWEB-0246,2021-045V,2026-06-26T16:25:47.921088,13.15549653,.0001861,87.9010,257.2967,99.5753,260.5587,0,U,48786,999,24552,.26781E-3,.114E-5,0
ONEWEB-0210,2021-045W,2026-06-26T17:38:48.418368,13.15546575,.0001142,87.9006,257.2834,109.4171,250.7082,0,U,48787,999,24557,.17536E-3,.79E-6,0
ONEWEB-0214,2021-045X,2026-06-26T16:01:50.066976,13.15549501,.0001684,87.9007,257.2936,92.9654,267.1669,0,U,48788,999,24553,.36089E-3,.149E-5,0
ONEWEB-0221,2021-045Y,2026-06-26T18:01:38.483040,13.15548728,.0001953,87.9007,257.2858,105.7349,254.3996,0,U,48789,999,24563,.20252E-3,.89E-6,0
ONEWEB-0213,2021-045Z,2026-06-26T17:45:39.926016,13.15547778,.0001785,87.9004,257.2911,106.7049,253.4277,0,U,48790,999,24569,.25506E-3,.109E-5,0
ONEWEB-0212,2021-045AA,2026-06-26T17:12:33.054336,13.15550401,.000208,87.9009,257.2902,100.4406,259.6959,0,U,48791,999,24568,-.39077E-3,-.134E-5,0
ONEWEB-0227,2021-045AB,2026-06-26T17:11:26.071008,13.15549070,.0002032,87.9007,257.2910,103.1127,257.0230,0,U,48792,999,24563,-.48386E-3,-.169E-5,0
ONEWEB-0226,2021-045AC,2026-06-26T17:02:17.474208,13.15546674,.0001788,87.9005,257.2967,103.3641,256.7689,0,U,48793,999,24560,-.34566E-3,-.117E-5,0
ONEWEB-0224,2021-045AD,2026-06-26T17:59:21.521760,13.15547456,.0002691,87.8998,257.3222,114.5797,245.5614,0,U,48794,999,24553,.33403E-3,.139E-5,0
ONEWEB-0233,2021-045AE,2026-06-26T16:16:28.798176,13.15548451,.0001985,87.9000,257.3439,109.2594,250.8751,0,U,48795,999,24554,.24794E-3,.106E-5,0
ONEWEB-0190,2021-045AF,2026-06-26T15:58:25.320576,13.15547928,.0001611,87.9000,257.3087,119.3269,240.8022,0,U,48796,999,24561,.49307E-3,.198E-5,0
ONEWEB-0236,2021-045AG,2026-06-26T16:23:31.842816,13.15549069,.0002146,87.8998,257.3147,98.8851,261.2522,0,U,48797,999,24550,.31482E-4,.25E-6,0
